[{"OBJECT_NAME":"QIANFAN-95","OBJECT_ID":"2025-233E","EPOCH":"2026-03-09T23:24:28.052352","MEAN_MOTION":13.51015531,"ECCENTRICITY":0.00021432,"INCLINATION":88.9943,"RA_OF_ASC_NODE":52.6837,"ARG_OF_PERICENTER":92.1551,"MEAN_ANOMALY":267.9846,"EPHEMERIS_TYPE":0,"CLASSIFICATION_TYPE":"U","NORAD_CAT_ID":66037,"ELEMENT_SET_NO":999,"REV_AT_EPOCH":2008,"BSTAR":8.5907025e-5,"MEAN_MOTION_DOT":6.7e-7,"MEAN_MOTION_DDOT":0},{"OBJECT_NAME":"OBJECT F","OBJECT_ID":"2021-020F","EPOCH":"2026-03-09T23:34:00.416064","MEAN_MOTION":13.44626351,"ECCENTRICITY":0.01637521,"INCLINATION":63.408,"RA_OF_ASC_NODE":160.6649,"ARG_OF_PERICENTER":1.5906,"MEAN_ANOMALY":358.5607,"EPHEMERIS_TYPE":0,"CLASSIFICATION_TYPE":"U","NORAD_CAT_ID":47859,"ELEMENT_SET_NO":999,"REV_AT_EPOCH":24506,"BSTAR":0.00039011787,"MEAN_MOTION_DOT":1.57e-6,"MEAN_MOTION_DDOT":0}]
